GLOBALSTAR M035         
1 25851U 99037A   25244.43522356 -.00000091  00000+0 -10447-2 0  9995
2 25851  51.9917 244.9271 0013412 104.7396  47.1308 11.04539266104684
GLOBALSTAR M032         
1 25852U 99037B   25244.79296493 -.00000060  00000+0  21420-3 0  9994
2 25852  51.9955  64.0386 0011744 297.4581  62.5024 11.19062868143366
GLOBALSTAR M051         
1 25853U 99037C   25244.27820121 -.00000038  00000+0  83020-3 0  9998
2 25853  51.9765 217.3313 0000768 359.4775   0.6034 11.42205569141081
GLOBALSTAR M030         
1 25854U 99037D   25244.66692318 -.00000063  00000+0  24865-3 0  9997
2 25854  51.9915  17.6353 0003362 172.7772 187.3094 11.55113835158883
GLOBALSTAR M048         
1 25872U 99041A   25244.90530190 -.00000068  00000+0  60721-4 0  9995
2 25872  51.9360 153.8194 0013533 320.5786 118.7069 11.33858783133687
GLOBALSTAR M026         
1 25873U 99041B   25244.75699444 -.00000067  00000+0 -99021-4 0  9992
2 25873  52.0054   1.3601 0001917  56.2596 104.2198 11.06849721156966
GLOBALSTAR M043         
1 25874U 99041C   25244.48174706 -.00000031  00000+0  11082-2 0  9991
2 25874  51.9377 265.5120 0013420  82.2111  89.5932 11.25696125131465
GLOBALSTAR M028         
1 25875U 99041D   25244.48036762 -.00000050  00000+0  32124-3 0  9993
2 25875  51.9651 325.5741 0063097 236.6776 122.8032 12.50586798199722
